CCSDS_OMM_VERS = 2.0
CREATION_DATE  = 
ORIGINATOR     = 

OBJECT_NAME    = STARLINK-36766
OBJECT_ID      = 2026-042A
CENTER_NAME    = EARTH
REF_FRAME      = TEME
TIME_SYSTEM    = UTC
MEAN_ELEMENT_THEORY = SGP/SGP4

EPOCH          = 2026-03-12T14:00:01.999872
MEAN_MOTION    = 15.93505623
ECCENTRICITY   = .00012075
INCLINATION    = 53.1596
RA_OF_ASC_NODE = 180.4767
ARG_OF_PERICENTER = 66.3707
MEAN_ANOMALY   = 77.6206

EPHEMERIS_TYPE = 0
CLASSIFICATION_TYPE = U
NORAD_CAT_ID   = 68069
ELEMENT_SET_NO = 999
REV_AT_EPOCH   = 250
BSTAR          = -.40715804E-2
MEAN_MOTION_DOT = -.1491604E-1
MEAN_MOTION_DDOT = .64279075E-3

CCSDS_OMM_VERS = 2.0
CREATION_DATE  = 
ORIGINATOR     = 

OBJECT_NAME    = STARLINK-36823
OBJECT_ID      = 2026-042B
CENTER_NAME    = EARTH
REF_FRAME      = TEME
TIME_SYSTEM    = UTC
MEAN_ELEMENT_THEORY = SGP/SGP4

EPOCH          = 2026-03-12T14:00:01.999872
MEAN_MOTION    = 15.93623474
ECCENTRICITY   = .00011147
INCLINATION    = 53.1591
RA_OF_ASC_NODE = 180.4712
ARG_OF_PERICENTER = 73.7446
MEAN_ANOMALY   = 72.8774

EPHEMERIS_TYPE = 0
CLASSIFICATION_TYPE = U
NORAD_CAT_ID   = 68070
ELEMENT_SET_NO = 999
REV_AT_EPOCH   = 250
BSTAR          = -.40486754E-2
MEAN_MOTION_DOT = -.149245E-1
MEAN_MOTION_DDOT = .64421066E-3

CCSDS_OMM_VERS = 2.0
CREATION_DATE  = 
ORIGINATOR     = 

OBJECT_NAME    = STARLINK-36970
OBJECT_ID      = 2026-042C
CENTER_NAME    = EARTH
REF_FRAME      = TEME
TIME_SYSTEM    = UTC
MEAN_ELEMENT_THEORY = SGP/SGP4

EPOCH          = 2026-03-12T14:00:01.999872
MEAN_MOTION    = 15.93859060
ECCENTRICITY   = .00012984
INCLINATION    = 53.1597
RA_OF_ASC_NODE = 180.4606
ARG_OF_PERICENTER = 65.1759
MEAN_ANOMALY   = 86.5694

EPHEMERIS_TYPE = 0
CLASSIFICATION_TYPE = U
NORAD_CAT_ID   = 68071
ELEMENT_SET_NO = 999
REV_AT_EPOCH   = 251
BSTAR          = -.39791472E-2
MEAN_MOTION_DOT = -.1485353E-1
MEAN_MOTION_DDOT = .6401152E-3

CCSDS_OMM_VERS = 2.0
CREATION_DATE  = 
ORIGINATOR     = 

OBJECT_NAME    = STARLINK-36972
OBJECT_ID      = 2026-042D
CENTER_NAME    = EARTH
REF_FRAME      = TEME
TIME_SYSTEM    = UTC
MEAN_ELEMENT_THEORY = SGP/SGP4

EPOCH          = 2026-03-12T14:00:01.999872
MEAN_MOTION    = 15.93742790
ECCENTRICITY   = .0001154
INCLINATION    = 53.1596
RA_OF_ASC_NODE = 180.4665
ARG_OF_PERICENTER = 67.7177
MEAN_ANOMALY   = 81.2114

EPHEMERIS_TYPE = 0
CLASSIFICATION_TYPE = U
NORAD_CAT_ID   = 68072
ELEMENT_SET_NO = 999
REV_AT_EPOCH   = 251
BSTAR          = -.40113207E-2
MEAN_MOTION_DOT = -.1488106E-1
MEAN_MOTION_DDOT = .64154428E-3

CCSDS_OMM_VERS = 2.0
CREATION_DATE  = 
ORIGINATOR     = 

OBJECT_NAME    = STARLINK-37074
OBJECT_ID      = 2026-042E
CENTER_NAME    = EARTH
REF_FRAME      = TEME
TIME_SYSTEM    = UTC
MEAN_ELEMENT_THEORY = SGP/SGP4

EPOCH          = 2026-03-12T14:00:01.999872
MEAN_MOTION    = 15.93975942
ECCENTRICITY   = .00011792
INCLINATION    = 53.1596
RA_OF_ASC_NODE = 180.4555
ARG_OF_PERICENTER = 67.9959
MEAN_ANOMALY   = 86.3652

EPHEMERIS_TYPE = 0
CLASSIFICATION_TYPE = U
NORAD_CAT_ID   = 68073
ELEMENT_SET_NO = 999
REV_AT_EPOCH   = 251
BSTAR          = -.39614856E-2
MEAN_MOTION_DOT = -.1487903E-1
MEAN_MOTION_DDOT = .64287585E-3

CCSDS_OMM_VERS = 2.0
CREATION_DATE  = 
ORIGINATOR     = 

OBJECT_NAME    = STARLINK-37045
OBJECT_ID      = 2026-042F
CENTER_NAME    = EARTH
REF_FRAME      = TEME
TIME_SYSTEM    = UTC
MEAN_ELEMENT_THEORY = SGP/SGP4

EPOCH          = 2026-03-12T14:00:01.999872
MEAN_MOTION    = 15.94093012
ECCENTRICITY   = .00012605
INCLINATION    = 53.1594
RA_OF_ASC_NODE = 180.4496
ARG_OF_PERICENTER = 66.2195
MEAN_ANOMALY   = 90.9073

EPHEMERIS_TYPE = 0
CLASSIFICATION_TYPE = U
NORAD_CAT_ID   = 68074
ELEMENT_SET_NO = 999
REV_AT_EPOCH   = 251
BSTAR          = -.39302175E-2
MEAN_MOTION_DOT = -.1485416E-1
MEAN_MOTION_DDOT = .64166072E-3

CCSDS_OMM_VERS = 2.0
CREATION_DATE  = 
ORIGINATOR     = 

OBJECT_NAME    = STARLINK-37026
OBJECT_ID      = 2026-042G
CENTER_NAME    = EARTH
REF_FRAME      = TEME
TIME_SYSTEM    = UTC
MEAN_ELEMENT_THEORY = SGP/SGP4

EPOCH          = 2026-03-12T14:00:01.999872
MEAN_MOTION    = 15.94216169
ECCENTRICITY   = .0001049
INCLINATION    = 53.1595
RA_OF_ASC_NODE = 180.4438
ARG_OF_PERICENTER = 65.8355
MEAN_ANOMALY   = 94.1214

EPHEMERIS_TYPE = 0
CLASSIFICATION_TYPE = U
NORAD_CAT_ID   = 68075
ELEMENT_SET_NO = 999
REV_AT_EPOCH   = 251
BSTAR          = -.39349523E-2
MEAN_MOTION_DOT = -.1496797E-1
MEAN_MOTION_DDOT = .65148745E-3

CCSDS_OMM_VERS = 2.0
CREATION_DATE  = 
ORIGINATOR     = 

OBJECT_NAME    = STARLINK-37023
OBJECT_ID      = 2026-042H
CENTER_NAME    = EARTH
REF_FRAME      = TEME
TIME_SYSTEM    = UTC
MEAN_ELEMENT_THEORY = SGP/SGP4

EPOCH          = 2026-03-12T14:00:01.999872
MEAN_MOTION    = 15.94331832
ECCENTRICITY   = .00011246
INCLINATION    = 53.1595
RA_OF_ASC_NODE = 180.4383
ARG_OF_PERICENTER = 68.3642
MEAN_ANOMALY   = 94.2187

EPHEMERIS_TYPE = 0
CLASSIFICATION_TYPE = U
NORAD_CAT_ID   = 68076
ELEMENT_SET_NO = 999
REV_AT_EPOCH   = 251
BSTAR          = -.38973374E-2
MEAN_MOTION_DOT = -.1491731E-1
MEAN_MOTION_DDOT = .64820781E-3

